STARLINK-1366
1 45569U 20025AQ  26061.03447828  .00110502  00000+0  75209-3 0  9993
2 45569  53.0422  76.6281 0008363  25.2426 334.8999 15.74046428324834
